OBJECT_NAME,OBJECT_ID,EPOCH,MEAN_MOTION,ECCENTRICITY,INCLINATION,RA_OF_ASC_NODE,ARG_OF_PERICENTER,MEAN_ANOMALY,EPHEMERIS_TYPE,CLASSIFICATION_TYPE,NORAD_CAT_ID,ELEMENT_SET_NO,REV_AT_EPOCH,BSTAR,MEAN_MOTION_DOT,MEAN_MOTION_DDOT
DUBAISAT-1,2009-041B,2026-06-14T15:31:50.773152,14.75119238,.00117138,98.0049,298.9328,80.9709,279.2825,0,U,35682,999,90472,.10112054E-3,.632E-5,0
OCEANSAT-2,2009-051A,2026-06-14T15:01:31.399968,13.99664746,.00150062,98.2324,152.7329,243.7440,116.2185,0,U,35931,999,87897,-.27652735E-4,-.78E-6,0
WORLDVIEW-2 (WV-2),2009-055A,2026-06-14T14:08:19.402080,14.37898752,.00035593,98.4737,239.0744,216.9712,143.1230,0,U,35946,999,87527,.5096292E-4,.11E-5,0
SMOS,2009-059A,2026-06-14T11:30:02.782368,14.39771311,.00013215,98.4424,352.8538,89.5523,270.5817,0,U,36036,999,87306,.8401393E-4,.22E-5,0
YAOGAN-7,2009-069A,2026-06-14T14:00:49.556160,14.78007531,.00257009,98.0076,51.4670,49.7640,310.5813,0,U,36110,999,88924,.68054343E-4,.441E-5,0
TANDEM-X,2010-030A,2026-06-14T13:22:04.320480,15.19148396,.00018535,97.4451,173.3020,84.5205,275.6241,0,U,36605,999,88624,.26723231E-4,.494E-5,0
CARTOSAT-2B,2010-035A,2026-06-14T13:33:54.987264,14.78659357,.00109721,97.9959,216.1317,192.3432,167.7512,0,U,36795,999,85946,.1441618E-3,.1005E-4,0
YAOGAN-10,2010-038A,2026-06-14T15:54:23.790240,14.85343945,.00017089,97.8977,189.0871,85.3036,9.1397,0,U,36834,999,85683,.20603306E-3,.1718E-4,0
COSMO-SKYMED 4,2010-060A,2026-06-14T14:35:57.871680,14.82152933,.00014073,97.8880,349.2456,84.0471,276.0902,0,U,37216,999,84418,.10594044E-3,.791E-5,0
RESOURCESAT-2,2011-015A,2026-06-14T13:19:32.190816,14.21605885,.00101534,98.7644,233.0152,263.9628,96.0392,0,U,37387,999,78580,.52049746E-4,.7E-6,0
HAIYANG-2A,2011-043A,2026-06-14T13:31:08.561856,13.74458870,.00062031,99.3389,168.2971,95.2234,264.9624,0,U,37781,999,74629,-.687554E-5,-.5E-6,0
RASAT,2011-044D,2026-06-14T14:19:59.003616,14.68165210,.00199657,98.0579,257.0334,197.1803,274.8771,0,U,37791,999,79280,.12786336E-3,.688E-5,0
SRMSAT,2011-058D,2026-06-14T11:39:51.309792,14.11575039,.00118434,19.9719,75.8168,173.9008,0.9019,0,U,37841,999,75743,.48805972E-4,.355E-5,0
PLEIADES 1A,2011-076F,2026-06-14T14:18:11.174688,14.58570381,.00016366,98.1982,240.7336,97.4229,9.2415,0,U,38012,999,77161,.12186856E-3,.521E-5,0
ZIYUAN 1-02C (ZY 1-02C),2011-079A,2026-06-14T15:34:02.957376,14.38214073,.00056675,98.4079,233.0102,325.8524,137.7066,0,U,38038,999,75884,.24111711E-3,.689E-5,0
ARIRANG-3 (KOMPSAT-3),2012-025B,2026-06-14T15:18:11.912832,14.62204109,.0006593,98.1176,123.1415,115.8051,244.3832,0,U,38338,999,75097,.81932636E-4,.366E-5,0
EXACTVIEW-1 (ADS-1B),2012-039C,2026-06-14T13:44:33.496224,14.24983833,.00110256,98.9775,282.9038,173.7588,186.3730,0,U,38709,999,72233,.5452863E-4,.81E-6,0
SPOT 6,2012-047A,2026-06-14T14:11:00.635712,14.58562799,.00014895,98.2126,232.9302,92.0282,268.1088,0,U,38755,999,73267,.14146886E-3,.612E-5,0
PLEIADES 1B,2012-068A,2026-06-14T14:38:14.739648,14.58560518,.00016495,98.1953,240.6969,92.6109,267.5279,0,U,39019,999,72047,.1517356E-3,.66E-5,0
GOKTURK 2,2012-073A,2026-06-14T13:43:15.819168,14.75540327,.0001664,97.6819,3.1347,58.2443,301.8929,0,U,39030,999,72412,.69972538E-4,.429E-5,0
LANDSAT 8,2013-008A,2026-06-14T13:15:44.743680,14.57092881,.00013672,98.2302,235.7191,93.5288,266.6067,0,U,39084,999,69751,.71620163E-4,.277E-5,0
SARAL,2013-009A,2026-06-14T14:19:26.804928,14.32855376,.00008295,98.5555,352.1969,324.7701,35.3428,0,U,39086,999,69523,.46463988E-4,.83E-6,0
GAOFEN-1,2013-018A,2026-06-14T14:57:40.596192,14.76534929,.00157083,97.9102,237.7433,275.5588,84.3831,0,U,39150,999,70786,.12993395E-3,.856E-5,0
VNREDSAT 1,2013-021B,2026-06-14T13:28:46.719840,14.64854885,.00017088,97.9087,219.0788,90.1569,269.9830,0,U,39160,999,69990,.11884982E-3,.589E-5,0
ARIRANG-5 (KOMPSAT-5),2013-042A,2026-06-14T13:44:00.994272,15.04485110,.00052098,97.6206,352.3101,126.6933,233.4773,0,U,39227,999,70346,.94839446E-4,.1266E-4,0
SKYSAT-A,2013-066C,2026-06-14T09:55:21.087264,15.12962593,.00203426,97.3817,214.8989,327.6661,32.3322,0,U,39418,999,68806,.18278905E-3,.3174E-4,0
DUBAISAT-2,2013-066D,2026-06-14T14:51:38.810016,15.10166186,.00126971,97.4556,155.8300,49.0169,311.2157,0,U,39419,999,68600,.22396219E-3,.3599E-4,0
GPM-CORE,2014-009C,2026-06-14T13:18:48.348864,15.44519790,.00119535,64.9722,316.9426,250.6199,109.3650,0,U,39574,999,69740,.23766479E-3,.10875E-3,0
SENTINEL-1A,2014-016A,2026-06-14T14:59:28.853664,14.59198249,.00014372,98.1774,173.1944,80.0711,280.0651,0,U,39634,999,64964,-.56763027E-4,-.313E-5,0
KAZEOSAT 1,2014-024A,2026-06-14T14:14:15.144576,14.42080035,.00013969,98.3212,238.1048,74.6670,285.4674,0,U,39731,999,63818,.14176516E-3,.423E-5,0
