DUBAISAT-1              
1 35682U 09041B   26165.64711543  .00000632  00000+0  10112-3 0  9997
2 35682  98.0049 298.9328 0011713  80.9709 279.2825 14.75119238904721
OCEANSAT-2              
1 35931U 09051A   26165.62605787 -.00000078  00000+0 -27653-4 0  9990
2 35931  98.2324 152.7329 0015006 243.7440 116.2185 13.99664746878974
WORLDVIEW-2 (WV-2)      
1 35946U 09055A   26165.58911345  .00000110  00000+0  50963-4 0  9990
2 35946  98.4737 239.0744 0003559 216.9712 143.1230 14.37898752875273
SMOS                    
1 36036U 09059A   26165.47919887  .00000220  00000+0  84014-4 0  9998
2 36036  98.4424 352.8538 0001321  89.5523 270.5817 14.39771311873065
YAOGAN-7                
1 36110U 09069A   26165.58390690  .00000441  00000+0  68054-4 0  9990
2 36110  98.0076  51.4670 0025700  49.7640 310.5813 14.78007531889248
TANDEM-X                
1 36605U 10030A   26165.55699445  .00000494  00000+0  26723-4 0  9991
2 36605  97.4451 173.3020 0001853  84.5205 275.6241 15.19148396886241
CARTOSAT-2B             
1 36795U 10035A   26165.56521976  .00001005  00000+0  14416-3 0  9994
2 36795  97.9959 216.1317 0010972 192.3432 167.7512 14.78659357859460
YAOGAN-10               
1 36834U 10038A   26165.66277535  .00001718  00000+0  20603-3 0  9997
2 36834  97.8977 189.0871 0001708  85.3036   9.1397 14.85343945856833
COSMO-SKYMED 4          
1 37216U 10060A   26165.60830870  .00000791  00000+0  10594-3 0  9996
2 37216  97.8880 349.2456 0001407  84.0471 276.0902 14.82152933844189
RESOURCESAT-2           
1 37387U 11015A   26165.55523369  .00000070  00000+0  52050-4 0  9996
2 37387  98.7644 233.0152 0010153 263.9628  96.0392 14.21605885785807
HAIYANG-2A              
1 37781U 11043A   26165.56329354 -.00000050  00000+0 -68755-5 0  9994
2 37781  99.3389 168.2971 0006203  95.2234 264.9624 13.74458870746297
RASAT                   
1 37791U 11044D   26165.59721069  .00000688  00000+0  12786-3 0  9994
2 37791  98.0579 257.0334 0019965 197.1803 274.8771 14.68165210792806
SRMSAT                  
1 37841U 11058D   26165.48601053  .00000355  00000+0  48806-4 0  9997
2 37841  19.9719  75.8168 0011843 173.9008   0.9019 14.11575039757432
PLEIADES 1A             
1 38012U 11076F   26165.59596267  .00000521  00000+0  12187-3 0  9997
2 38012  98.1982 240.7336 0001636  97.4229   9.2415 14.58570381771612
ZIYUAN 1-02C (ZY 1-02C) 
1 38038U 11079A   26165.64864534  .00000689  00000+0  24112-3 0  9995
2 38038  98.4079 233.0102 0005667 325.8524 137.7066 14.38214073758840
ARIRANG-3 (KOMPSAT-3)   
1 38338U 12025B   26165.63763788  .00000366  00000+0  81933-4 0  9995
2 38338  98.1176 123.1415 0006593 115.8051 244.3832 14.62204109750973
EXACTVIEW-1 (ADS-1B)    
1 38709U 12039C   26165.57260991  .00000081  00000+0  54529-4 0  9998
2 38709  98.9775 282.9038 0011025 173.7588 186.3730 14.24983833722334
SPOT 6                  
1 38755U 12047A   26165.59097958  .00000612  00000+0  14147-3 0  9992
2 38755  98.2126 232.9302 0001489  92.0282 268.1088 14.58562799732678
PLEIADES 1B             
1 39019U 12068A   26165.60989282  .00000660  00000+0  15174-3 0  9995
2 39019  98.1953 240.6969 0001649  92.6109 267.5279 14.58560518720473
GOKTURK 2               
1 39030U 12073A   26165.57171087  .00000429  00000+0  69973-4 0  9996
2 39030  97.6819   3.1347 0001664  58.2443 301.8929 14.75540327724124
LANDSAT 8               
1 39084U 13008A   26165.55260120  .00000277  00000+0  71620-4 0  9992
2 39084  98.2302 235.7191 0001367  93.5288 266.6067 14.57092881697516
SARAL                   
1 39086U 13009A   26165.59683802  .00000083  00000+0  46464-4 0  9998
2 39086  98.5555 352.1969 0000829 324.7701  35.3428 14.32855376695237
GAOFEN-1                
1 39150U 13018A   26165.62338653  .00000856  00000+0  12993-3 0  9992
2 39150  97.9102 237.7433 0015708 275.5588  84.3831 14.76534929707863
VNREDSAT 1              
1 39160U 13021B   26165.56165185  .00000589  00000+0  11885-3 0  9990
2 39160  97.9087 219.0788 0001708  90.1569 269.9830 14.64854885699905
ARIRANG-5 (KOMPSAT-5)   
1 39227U 13042A   26165.57223373  .00001266  00000+0  94839-4 0  9996
2 39227  97.6206 352.3101 0005209 126.6933 233.4773 15.04485110703464
SKYSAT-A                
1 39418U 13066C   26165.41343851  .00003174  00000+0  18279-3 0  9994
2 39418  97.3817 214.8989 0020342 327.6661  32.3322 15.12962593688061
DUBAISAT-2              
1 39419U 13066D   26165.61919919  .00003599  00000+0  22396-3 0  9997
2 39419  97.4556 155.8300 0012697  49.0169 311.2157 15.10166186686005
GPM-CORE                
1 39574U 14009C   26165.55472626  .00010875  00000+0  23766-3 0  9996
2 39574  64.9722 316.9426 0011953 250.6199 109.3650 15.44519790697407
SENTINEL-1A             
1 39634U 14016A   26165.62463951 -.00000313  00000+0 -56763-4 0  9992
2 39634  98.1774 173.1944 0001437  80.0711 280.0651 14.59198249649647
KAZEOSAT 1              
1 39731U 14024A   26165.59323084  .00000423  00000+0  14177-3 0  9999
2 39731  98.3212 238.1048 0001396  74.6670 285.4674 14.42080035638184
